NORAD_CAT_ID,OBJECT_NAME,OBJECT_TYPE,EPOCH,MEAN_MOTION,ECCENTRICITY,INCLINATION,RA_OF_ASC_NODE,ARG_OF_PERICENTER,MEAN_ANOMALY,BSTAR,MEAN_MOTION_DOT,MEAN_MOTION_DDOT,TLE_LINE0,TLE_LINE1,TLE_LINE2,SEMIMAJOR_AXIS,PERIOD,APOGEE,PERIGEE,DECAYED
51792.0,STARLINK-3626,PAYLOAD,2023-02-05 10:24:35,15.08851823,0.0001178,53.2157,14.0646,98.1669,261.9457,0.00032668,4.917e-05,0.0,0 STARLINK-3626,1 51792U 22017AA  23036.43374153  .00004917  00000-0  32668-3 0  9999,2 51792  53.2157  14.0646 0001178  98.1669 261.9457 15.08851823 53649,6917.844,95.437,540.524,538.894,0.0
51792.0,STARLINK-3626,PAYLOAD,2023-02-06 10:15:22,15.08857733,0.0001056,53.2157,9.6048,97.5643,262.547,0.00054229,8.357e-05,0.0,0 STARLINK-3626,1 51792U 22017AA  23037.42734201  .00008357  00000-0  54229-3 0  9992,2 51792  53.2157   9.6048 0001056  97.5643 262.5470 15.08857733 53799,6917.826,95.436,540.422,538.961,0.0
51792.0,STARLINK-3626,PAYLOAD,2023-02-07 06:55:23,15.08870224,0.0001083,53.2154,5.7382,92.3854,267.7262,0.0015385,0.00024302,0.0,0 STARLINK-3626,1 51792U 22017AA  23038.28846098  .00024302  00000-0  15385-2 0  9992,2 51792  53.2154   5.7382 0001083  92.3854 267.7262 15.08870224 53922,6917.788,95.436,540.402,538.904,0.0
51792.0,STARLINK-3626,PAYLOAD,2023-02-07 10:06:08,15.08880171,0.0001054,53.2156,5.1438,89.767,270.3443,0.0014654,0.00023136,0.0,0 STARLINK-3626,1 51792U 22017AA  23038.42093619  .00023136  00000-0  14654-2 0  9993,2 51792  53.2156   5.1438 0001054  89.7670 270.3443 15.08880171 53949,6917.758,95.435,540.352,538.893,0.0
51792.0,STARLINK-3626,PAYLOAD,2023-02-08 06:46:09,15.0887513,0.0001061,53.2151,1.278,107.0248,253.086,0.0026016,0.000414,0.0,0 STARLINK-3626,1 51792U 22017AA  23039.28205703  .00041400  00000-0  26016-2 0  9996,2 51792  53.2151   1.2780 0001061 107.0248 253.0860 15.08875130 54079,6917.773,95.435,540.372,538.904,0.0
51792.0,STARLINK-3626,PAYLOAD,2023-02-08 08:21:32,15.08882464,0.0001044,53.2151,0.9807,108.1979,251.9127,0.0028943,0.0004613,0.0,0 STARLINK-3626,1 51792U 22017AA  23039.34829539  .00046130  00000-0  28943-2 0  9998,2 51792  53.2151   0.9807 0001044 108.1979 251.9127 15.08882464 54081,6917.751,95.435,540.338,538.893,0.0
51792.0,STARLINK-3626,PAYLOAD,2023-02-09 08:12:20,15.08869244,0.0001244,53.2156,356.5202,86.2029,273.9105,0.0028612,0.00045579,0.0,0 STARLINK-3626,1 51792U 22017AA  23040.34190492  .00045579  00000-0  28612-2 0  9998,2 51792  53.2156 356.5202 0001244  86.2029 273.9105 15.08869244 54237,6917.791,95.436,540.517,538.795,0.0
51792.0,STARLINK-3626,PAYLOAD,2023-02-10 00:06:12,15.08851819,0.0001655,53.2156,353.547,111.3114,248.8055,0.0024857,0.00039507,0.0,0 STARLINK-3626,1 51792U 22017AA  23041.00431010  .00039507  00000-0  24857-2 0  9997,2 51792  53.2156 353.5470 0001655 111.3114 248.8055 15.08851819 54337,6917.844,95.437,540.854,538.564,0.0
51792.0,STARLINK-3626,PAYLOAD,2023-02-10 03:16:58,15.08866252,0.0001079,53.2157,352.9518,103.0807,257.0305,0.0024455,0.00038875,0.0,0 STARLINK-3626,1 51792U 22017AA  23041.13678798  .00038875  00000-0  24455-2 0  9998,2 51792  53.2157 352.9518 0001079 103.0807 257.0305 15.08866252 54350,6917.8,95.436,540.412,538.919,0.0
51792.0,STARLINK-3626,PAYLOAD,2023-02-11 03:07:45,15.08866426,0.0001192,53.217,348.4921,131.5624,228.5471,0.0017163,0.00027152,0.0,0 STARLINK-3626,1 51792U 22017AA  23042.13038349  .00027152  00000-0  17163-2 0  9995,2 51792  53.2170 348.4921 0001192 131.5624 228.5471 15.08866426 54509,6917.8,95.436,540.489,538.84,0.0
51792.0,STARLINK-3626,PAYLOAD,2023-02-12 02:58:32,15.08860443,8.21e-05,53.216,344.0338,130.5944,229.5119,0.0019051,0.00030179,0.0,0 STARLINK-3626,1 51792U 22017AA  23043.12398924  .00030179  00000-0  19051-2 0  9994,2 51792  53.2160 344.0338 0000821 130.5944 229.5119 15.08860443 54653,6917.818,95.436,540.251,539.115,0.0
51792.0,STARLINK-3626,PAYLOAD,2023-02-13 06:00:07,15.08831411,0.0001363,53.215,338.9751,92.5273,267.5875,0.0010825,0.00016978,0.0,0 STARLINK-3626,1 51792U 22017AA  23044.25008106  .00016978  00000-0  10825-2 0  9990,2 51792  53.2150 338.9751 0001363  92.5273 267.5875 15.08831411 54820,6917.907,95.438,540.715,538.829,0.0
51792.0,STARLINK-3626,PAYLOAD,2023-02-13 12:21:40,15.08830892,0.0002827,53.2158,337.7857,73.8452,286.2851,0.00061316,9.482e-05,0.0,0 STARLINK-3626,1 51792U 22017AA  23044.51504672  .00009482  00000-0  61316-3 0  9992,2 51792  53.2158 337.7857 0002827  73.8452 286.2851 15.08830892 54867,6917.908,95.438,541.729,537.818,0.0
51792.0,STARLINK-3626,PAYLOAD,2023-02-14 12:12:26,15.08840623,0.0001321,53.2154,333.3258,80.0103,280.1038,0.00040321,6.135e-05,0.0,0 STARLINK-3626,1 51792U 22017AA  23045.50864371  .00006135  00000-0  40321-3 0  9992,2 51792  53.2154 333.3258 0001321  80.0103 280.1038 15.08840623 55012,6917.878,95.438,540.657,538.83,0.0
51792.0,STARLINK-3626,PAYLOAD,2023-02-15 12:03:13,15.08848149,0.0001725,53.2153,328.8649,67.6375,292.48,0.00057067,8.808e-05,0.0,0 STARLINK-3626,1 51792U 22017AA  23046.50224424  .00008808  00000-0  57067-3 0  9996,2 51792  53.2153 328.8649 0001725  67.6375 292.4800 15.08848149 55164,6917.855,95.437,540.914,538.527,0.0
51792.0,STARLINK-3626,PAYLOAD,2023-02-16 00:46:18,15.08862995,0.0001722,53.2157,326.4833,68.7628,291.3548,0.00069298,0.00010765,0.0,0 STARLINK-3626,1 51792U 22017AA  23047.03215881  .00010765  00000-0  69298-3 0  9996,2 51792  53.2157 326.4833 0001722  68.7628 291.3548 15.08862995 55248,6917.81,95.436,540.866,538.484,0.0
51792.0,STARLINK-3626,PAYLOAD,2023-02-16 02:21:41,15.08880288,0.0001322,53.2147,326.1885,72.167,287.9466,0.0015358,0.00024266,0.0,0 STARLINK-3626,1 51792U 22017AA  23047.09839356  .00024266  00000-0  15358-2 0  9999,2 51792  53.2147 326.1885 0001322  72.1670 287.9466 15.08880288 55259,6917.757,95.435,540.537,538.708,0.0
51792.0,STARLINK-3626,PAYLOAD,2023-02-16 11:54:00,15.08859691,0.0001434,53.2165,324.4021,78.6641,281.4512,0.00016459,2.334e-05,0.0,0 STARLINK-3626,1 51792U 22017AA  23047.49583630  .00002334  00000-0  16459-3 0  9990,2 51792  53.2165 324.4021 0001434  78.6641 281.4512 15.08859691 55317,6917.82,95.436,540.677,538.693,0.0
51792.0,STARLINK-3626,PAYLOAD,2023-02-16 23:01:42,15.08837327,0.0001379,53.2153,322.3216,84.2919,275.823,-0.0001594,-2.824e-05,0.0,0 STARLINK-3626,1 51792U 22017AA  23047.95951953 -.00002824  00000-0 -15940-3 0  9998,2 51792  53.2153 322.3216 0001379  84.2919 275.8230 15.08837327 55389,6917.889,95.438,540.708,538.8,0.0
51792.0,STARLINK-3626,PAYLOAD,2023-02-17 03:47:51,15.08850385,0.0001576,53.216,321.4284,93.3552,266.762,0.00040872,6.225e-05,0.0,0 STARLINK-3626,1 51792U 22017AA  23048.15823766  .00006225  00000-0  40872-3 0  9990,2 51792  53.2160 321.4284 0001576  93.3552 266.7620 15.08850385 55410,6917.849,95.437,540.804,538.623,0.0
51792.0,STARLINK-3626,PAYLOAD,2023-02-17 11:44:48,15.08812748,0.0001476,53.2153,319.9431,97.988,262.128,0.00030902,4.63e-05,0.0,0 STARLINK-3626,1 51792U 22017AA  23048.48945083  .00004630  00000-0  30902-3 0  9994,2 51792  53.2153 319.9431 0001476  97.9880 262.1280 15.08812748 55469,6917.964,95.439,540.85,538.808,0.0
51792.0,STARLINK-3626,PAYLOAD,2023-02-17 21:17:07,15.08820308,0.0001191,53.216,318.1575,115.767,244.3445,0.00094075,0.00014708,0.0,0 STARLINK-3626,1 51792U 22017AA  23048.88689574  .00014708  00000-0  94075-3 0  9996,2 51792  53.2160 318.1575 0001191 115.7670 244.3445 15.08820308 55520,6917.941,95.439,540.63,538.982,0.0
51792.0,STARLINK-3626,PAYLOAD,2023-02-17 22:52:30,15.08825421,0.0001304,53.2155,317.8602,123.5642,236.5475,0.0014769,0.00023286,0.0,0 STARLINK-3626,1 51792U 22017AA  23048.95313636  .00023286  00000-0  14769-2 0  9999,2 51792  53.2155 317.8602 0001304 123.5642 236.5475 15.08825421 55531,6917.925,95.438,540.692,538.888,0.0
51792.0,STARLINK-3626,PAYLOAD,2023-02-19 00:18:40,15.0887506,9.66e-05,53.2172,313.1067,97.9125,262.1977,0.0014403,0.00022731,0.0,0 STARLINK-3626,1 51792U 22017AA  23050.01296990  .00022731  00000-0  14403-2 0  9991,2 51792  53.2172 313.1067 0000966  97.9125 262.1977 15.08875060 55690,6917.773,95.435,540.306,538.97,0.0
51792.0,STARLINK-3626,PAYLOAD,2023-02-19 09:50:58,15.08872224,6.14e-05,53.2153,311.321,76.9949,283.1111,0.00072494,0.00011279,0.0,0 STARLINK-3626,1 51792U 22017AA  23050.41040209  .00011279  00000-0  72494-3 0  9995,2 51792  53.2153 311.3210 0000614  76.9949 283.1111 15.08872224 55759,6917.782,95.436,540.072,539.222,0.0
51792.0,STARLINK-3626,PAYLOAD,2023-02-19 16:12:31,15.08869499,0.0001628,53.2164,310.1317,98.0246,262.0931,0.00058178,8.991e-05,0.0,0 STARLINK-3626,1 51792U 22017AA  23050.67536221  .00008991  00000-0  58178-3 0  9997,2 51792  53.2164 310.1317 0001628  98.0246 262.0931 15.08869499 55797,6917.79,95.436,540.781,538.529,0.0
51792.0,STARLINK-3626,PAYLOAD,2023-02-20 00:09:26,15.08859619,8.86e-05,53.2162,308.6454,71.7361,288.3727,0.0015257,0.0002409,0.0,0 STARLINK-3626,1 51792U 22017AA  23051.00656081  .00024090  00000-0  15257-2 0  9990,2 51792  53.2162 308.6454 0000886  71.7361 288.3727 15.08859619 55843,6917.82,95.436,540.298,539.073,0.0
51792.0,STARLINK-3626,PAYLOAD,2023-02-20 09:41:45,15.08845048,9.77e-05,53.2144,306.8612,78.3195,281.7906,0.00076122,0.00011849,0.0,0 STARLINK-3626,1 51792U 22017AA  23051.40400143  .00011849  00000-0  76122-3 0  9997,2 51792  53.2144 306.8612 0000977  78.3195 281.7906 15.08845048 55902,6917.865,95.437,540.406,539.054,0.0
51792.0,STARLINK-3626,PAYLOAD,2023-02-20 22:24:51,15.08834793,0.000122,53.2156,304.4835,92.9704,267.1427,-0.00011996,-2.196e-05,0.0,0 STARLINK-3626,1 51792U 22017AA  23051.93392512 -.00002196  00000-0 -11996-3 0  9990,2 51792  53.2156 304.4835 0001220  92.9704 267.1427 15.08834793 55985,6917.896,95.438,540.605,538.917,0.0
51792.0,STARLINK-3626,PAYLOAD,2023-02-21 03:11:00,15.08849503,0.0001151,53.2167,303.5906,82.0734,278.0388,9.3966e-05,1.208e-05,0.0,0 STARLINK-3626,1 51792U 22017AA  23052.13264140  .00001208  00000-0  93966-4 0  9997,2 51792  53.2167 303.5906 0001151  82.0734 278.0388 15.08849503 56019,6917.851,95.437,540.513,538.92,0.0
